STARLINK-5122           
1 54179U 22141Y   26068.18982004 -.00002138  00000+0 -11632-3 0  9991
2 54179  53.2185   6.2525 0001485 100.9333 259.1826 15.08832639185786
LEMUR-2-MARHISYAM       
1 60536U 24149BW  26068.74036894  .00013075  00000+0  82973-3 0  9990
2 60536  97.6912 151.2662 0003578 107.3271 252.8349 15.09015520 85478
